[{"OBJECT_NAME":"ONEWEB-0315","OBJECT_ID":"2021-075AC","EPOCH":"2026-01-05T06:57:08.803872","MEAN_MOTION":13.12441592,"ECCENTRICITY":0.00021181,"INCLINATION":87.8924,"RA_OF_ASC_NODE":22.9896,"ARG_OF_PERICENTER":95.9641,"MEAN_ANOMALY":264.1729,"EPHEMERIS_TYPE":0,"CLASSIFICATION_TYPE":"U","NORAD_CAT_ID":49101,"ELEMENT_SET_NO":999,"REV_AT_EPOCH":21380,"BSTAR":-0.00082853156,"MEAN_MOTION_DOT":-2.85e-6,"MEAN_MOTION_DDOT":0},{"OBJECT_NAME":"ONEWEB-0316","OBJECT_ID":"2021-075AD","EPOCH":"2026-01-05T00:35:07.913760","MEAN_MOTION":13.18684858,"ECCENTRICITY":0.00018353,"INCLINATION":87.9173,"RA_OF_ASC_NODE":7.8649,"ARG_OF_PERICENTER":90.5907,"MEAN_ANOMALY":269.5436,"EPHEMERIS_TYPE":0,"CLASSIFICATION_TYPE":"U","NORAD_CAT_ID":49102,"ELEMENT_SET_NO":999,"REV_AT_EPOCH":21570,"BSTAR":7.9308854e-5,"MEAN_MOTION_DOT":4.4e-7,"MEAN_MOTION_DDOT":0},{"OBJECT_NAME":"ONEWEB-0317","OBJECT_ID":"2021-075AE","EPOCH":"2026-01-05T06:55:46.541568","MEAN_MOTION":13.11882687,"ECCENTRICITY":0.00010436,"INCLINATION":87.8922,"RA_OF_ASC_NODE":23.0101,"ARG_OF_PERICENTER":77.1451,"MEAN_ANOMALY":282.9793,"EPHEMERIS_TYPE":0,"CLASSIFICATION_TYPE":"U","NORAD_CAT_ID":49103,"ELEMENT_SET_NO":999,"REV_AT_EPOCH":21382,"BSTAR":-0.00081490532,"MEAN_MOTION_DOT":-2.78e-6,"MEAN_MOTION_DDOT":0},{"OBJECT_NAME":"ONEWEB-0318","OBJECT_ID":"2021-075AF","EPOCH":"2026-01-05T00:30:22.721184","MEAN_MOTION":13.18684708,"ECCENTRICITY":0.00019738,"INCLINATION":87.9174,"RA_OF_ASC_NODE":7.8533,"ARG_OF_PERICENTER":94.4628,"MEAN_ANOMALY":265.673,"EPHEMERIS_TYPE":0,"CLASSIFICATION_TYPE":"U","NORAD_CAT_ID":49104,"ELEMENT_SET_NO":999,"REV_AT_EPOCH":21566,"BSTAR":0.00011768157,"MEAN_MOTION_DOT":5.9e-7,"MEAN_MOTION_DDOT":0},{"OBJECT_NAME":"ONEWEB-0319","OBJECT_ID":"2021-075AG","EPOCH":"2026-01-05T03:19:20.727840","MEAN_MOTION":13.17647495,"ECCENTRICITY":0.00023319,"INCLINATION":87.9086,"RA_OF_ASC_NODE":38.2848,"ARG_OF_PERICENTER":99.8905,"MEAN_ANOMALY":260.2489,"EPHEMERIS_TYPE":0,"CLASSIFICATION_TYPE":"U","NORAD_CAT_ID":49105,"ELEMENT_SET_NO":999,"REV_AT_EPOCH":21213,"BSTAR":9.426674e-6,"MEAN_MOTION_DOT":1.7e-7,"MEAN_MOTION_DDOT":0},{"OBJECT_NAME":"ONEWEB-0323","OBJECT_ID":"2021-075AH","EPOCH":"2026-01-05T06:35:12.197472","MEAN_MOTION":13.12442076,"ECCENTRICITY":0.00022152,"INCLINATION":87.8924,"RA_OF_ASC_NODE":22.9977,"ARG_OF_PERICENTER":105.234,"MEAN_ANOMALY":254.9034,"EPHEMERIS_TYPE":0,"CLASSIFICATION_TYPE":"U","NORAD_CAT_ID":49106,"ELEMENT_SET_NO":999,"REV_AT_EPOCH":21318,"BSTAR":0.00064032504,"MEAN_MOTION_DOT":2.43e-6,"MEAN_MOTION_DDOT":0},{"OBJECT_NAME":"ONEWEB-0329","OBJECT_ID":"2021-075AJ","EPOCH":"2026-01-05T03:31:31.884384","MEAN_MOTION":13.17649407,"ECCENTRICITY":0.0001758,"INCLINATION":87.9084,"RA_OF_ASC_NODE":38.2844,"ARG_OF_PERICENTER":99.0472,"MEAN_ANOMALY":261.0858,"EPHEMERIS_TYPE":0,"CLASSIFICATION_TYPE":"U","NORAD_CAT_ID":49107,"ELEMENT_SET_NO":999,"REV_AT_EPOCH":21211,"BSTAR":-3.451715e-6,"MEAN_MOTION_DOT":1.2e-7,"MEAN_MOTION_DDOT":0},{"OBJECT_NAME":"ONEWEB-0330","OBJECT_ID":"2021-075AK","EPOCH":"2026-01-05T03:32:43.913472","MEAN_MOTION":13.1764841,"ECCENTRICITY":0.00015807,"INCLINATION":87.9086,"RA_OF_ASC_NODE":38.2906,"ARG_OF_PERICENTER":100.3595,"MEAN_ANOMALY":259.7714,"EPHEMERIS_TYPE":0,"CLASSIFICATION_TYPE":"U","NORAD_CAT_ID":49108,"ELEMENT_SET_NO":999,"REV_AT_EPOCH":21215,"BSTAR":-3.7083174e-5,"MEAN_MOTION_DOT":-2.0e-8,"MEAN_MOTION_DDOT":0},{"OBJECT_NAME":"ONEWEB-0292","OBJECT_ID":"2021-083A","EPOCH":"2026-01-04T23:50:07.909440","MEAN_MOTION":13.1346993,"ECCENTRICITY":0.00018864,"INCLINATION":87.8974,"RA_OF_ASC_NODE":352.689,"ARG_OF_PERICENTER":89.3295,"MEAN_ANOMALY":270.805,"EPHEMERIS_TYPE":0,"CLASSIFICATION_TYPE":"U","NORAD_CAT_ID":49186,"ELEMENT_SET_NO":999,"REV_AT_EPOCH":20950,"BSTAR":-0.00054219661,"MEAN_MOTION_DOT":-1.85e-6,"MEAN_MOTION_DDOT":0},{"OBJECT_NAME":"ONEWEB-0303","OBJECT_ID":"2021-083B","EPOCH":"2026-01-05T00:25:37.885440","MEAN_MOTION":13.18685654,"ECCENTRICITY":0.0001872,"INCLINATION":87.9174,"RA_OF_ASC_NODE":7.8557,"ARG_OF_PERICENTER":92.3672,"MEAN_ANOMALY":267.7675,"EPHEMERIS_TYPE":0,"CLASSIFICATION_TYPE":"U","NORAD_CAT_ID":49187,"ELEMENT_SET_NO":999,"REV_AT_EPOCH":20847,"BSTAR":-0.000249585,"MEAN_MOTION_DOT":-8.5e-7,"MEAN_MOTION_DDOT":0},{"OBJECT_NAME":"ONEWEB-0306","OBJECT_ID":"2021-083C","EPOCH":"2026-01-05T00:11:23.611488","MEAN_MOTION":13.1868136,"ECCENTRICITY":0.00016067,"INCLINATION":87.9174,"RA_OF_ASC_NODE":7.8419,"ARG_OF_PERICENTER":83.8766,"MEAN_ANOMALY":276.2549,"EPHEMERIS_TYPE":0,"CLASSIFICATION_TYPE":"U","NORAD_CAT_ID":49188,"ELEMENT_SET_NO":999,"REV_AT_EPOCH":20851,"BSTAR":0.0026971426,"MEAN_MOTION_DOT":1.076e-5,"MEAN_MOTION_DDOT":0},{"OBJECT_NAME":"ONEWEB-0307","OBJECT_ID":"2021-083D","EPOCH":"2026-01-05T05:10:40.488960","MEAN_MOTION":13.13468883,"ECCENTRICITY":0.00017237,"INCLINATION":87.8971,"RA_OF_ASC_NODE":352.6352,"ARG_OF_PERICENTER":86.2707,"MEAN_ANOMALY":273.862,"EPHEMERIS_TYPE":0,"CLASSIFICATION_TYPE":"U","NORAD_CAT_ID":49189,"ELEMENT_SET_NO":999,"REV_AT_EPOCH":20953,"BSTAR":-0.0016215621,"MEAN_MOTION_DOT":-5.79e-6,"MEAN_MOTION_DDOT":0},{"OBJECT_NAME":"ONEWEB-0320","OBJECT_ID":"2021-083E","EPOCH":"2026-01-05T00:22:04.164672","MEAN_MOTION":13.18685078,"ECCENTRICITY":0.00017446,"INCLINATION":87.9169,"RA_OF_ASC_NODE":7.8685,"ARG_OF_PERICENTER":90.1785,"MEAN_ANOMALY":269.9547,"EPHEMERIS_TYPE":0,"CLASSIFICATION_TYPE":"U","NORAD_CAT_ID":49190,"ELEMENT_SET_NO":999,"REV_AT_EPOCH":20847,"BSTAR":0.00012979626,"MEAN_MOTION_DOT":6.4e-7,"MEAN_MOTION_DDOT":0},{"OBJECT_NAME":"ONEWEB-0321","OBJECT_ID":"2021-083F","EPOCH":"2026-01-05T05:57:14.233824","MEAN_MOTION":13.20770721,"ECCENTRICITY":0.00015293,"INCLINATION":87.9226,"RA_OF_ASC_NODE":306.9354,"ARG_OF_PERICENTER":69.4974,"MEAN_ANOMALY":290.6324,"EPHEMERIS_TYPE":0,"CLASSIFICATION_TYPE":"U","NORAD_CAT_ID":49191,"ELEMENT_SET_NO":999,"REV_AT_EPOCH":21532,"BSTAR":0.00028081861,"MEAN_MOTION_DOT":1.27e-6,"MEAN_MOTION_DDOT":0},{"OBJECT_NAME":"ONEWEB-0322","OBJECT_ID":"2021-083G","EPOCH":"2026-01-05T05:04:35.871456","MEAN_MOTION":13.13469132,"ECCENTRICITY":0.00016406,"INCLINATION":87.8976,"RA_OF_ASC_NODE":352.6392,"ARG_OF_PERICENTER":68.7087,"MEAN_ANOMALY":291.4217,"EPHEMERIS_TYPE":0,"CLASSIFICATION_TYPE":"U","NORAD_CAT_ID":49192,"ELEMENT_SET_NO":999,"REV_AT_EPOCH":20952,"BSTAR":-0.00074288473,"MEAN_MOTION_DOT":-2.59e-6,"MEAN_MOTION_DDOT":0},{"OBJECT_NAME":"ONEWEB-0324","OBJECT_ID":"2021-083H","EPOCH":"2026-01-05T07:18:55.486368","MEAN_MOTION":13.18684997,"ECCENTRICITY":0.00016549,"INCLINATION":87.9175,"RA_OF_ASC_NODE":7.7894,"ARG_OF_PERICENTER":92.9366,"MEAN_ANOMALY":267.1955,"EPHEMERIS_TYPE":0,"CLASSIFICATION_TYPE":"U","NORAD_CAT_ID":49193,"ELEMENT_SET_NO":999,"REV_AT_EPOCH":20853,"BSTAR":0.00011017338,"MEAN_MOTION_DOT":5.6e-7,"MEAN_MOTION_DDOT":0},{"OBJECT_NAME":"ONEWEB-0325","OBJECT_ID":"2021-083J","EPOCH":"2026-01-05T00:06:37.264608","MEAN_MOTION":13.18685274,"ECCENTRICITY":0.00017784,"INCLINATION":87.9175,"RA_OF_ASC_NODE":7.8685,"ARG_OF_PERICENTER":86.7374,"MEAN_ANOMALY":273.3962,"EPHEMERIS_TYPE":0,"CLASSIFICATION_TYPE":"U","NORAD_CAT_ID":49194,"ELEMENT_SET_NO":999,"REV_AT_EPOCH":20850,"BSTAR":0.00031665745,"MEAN_MOTION_DOT":1.38e-6,"MEAN_MOTION_DDOT":0},{"OBJECT_NAME":"ONEWEB-0326","OBJECT_ID":"2021-083K","EPOCH":"2026-01-05T00:28:12.870624","MEAN_MOTION":13.18685867,"ECCENTRICITY":0.00020589,"INCLINATION":87.9174,"RA_OF_ASC_NODE":7.8525,"ARG_OF_PERICENTER":92.0366,"MEAN_ANOMALY":268.1002,"EPHEMERIS_TYPE":0,"CLASSIFICATION_TYPE":"U","NORAD_CAT_ID":49195,"ELEMENT_SET_NO":999,"REV_AT_EPOCH":20849,"BSTAR":-7.5228924e-5,"MEAN_MOTION_DOT":-1.7e-7,"MEAN_MOTION_DDOT":0},{"OBJECT_NAME":"ONEWEB-0327","OBJECT_ID":"2021-083L","EPOCH":"2026-01-05T00:27:48.210336","MEAN_MOTION":13.1868459,"ECCENTRICITY":0.00021051,"INCLINATION":87.9165,"RA_OF_ASC_NODE":7.8699,"ARG_OF_PERICENTER":89.3548,"MEAN_ANOMALY":270.7826,"EPHEMERIS_TYPE":0,"CLASSIFICATION_TYPE":"U","NORAD_CAT_ID":49196,"ELEMENT_SET_NO":999,"REV_AT_EPOCH":20851,"BSTAR":2.8109818e-5,"MEAN_MOTION_DOT":2.4e-7,"MEAN_MOTION_DDOT":0},{"OBJECT_NAME":"ONEWEB-0328","OBJECT_ID":"2021-083M","EPOCH":"2026-01-05T04:49:58.540800","MEAN_MOTION":13.13467932,"ECCENTRICITY":0.0001626,"INCLINATION":87.8992,"RA_OF_ASC_NODE":352.5921,"ARG_OF_PERICENTER":89.7727,"MEAN_ANOMALY":270.3589,"EPHEMERIS_TYPE":0,"CLASSIFICATION_TYPE":"U","NORAD_CAT_ID":49197,"ELEMENT_SET_NO":999,"REV_AT_EPOCH":20950,"BSTAR":-0.00032596674,"MEAN_MOTION_DOT":-1.06e-6,"MEAN_MOTION_DDOT":0},{"OBJECT_NAME":"ONEWEB-0331","OBJECT_ID":"2021-083N","EPOCH":"2026-01-05T02:07:45.674112","MEAN_MOTION":13.18685872,"ECCENTRICITY":0.00019455,"INCLINATION":87.9174,"RA_OF_ASC_NODE":7.8316,"ARG_OF_PERICENTER":98.4465,"MEAN_ANOMALY":261.6887,"EPHEMERIS_TYPE":0,"CLASSIFICATION_TYPE":"U","NORAD_CAT_ID":49198,"ELEMENT_SET_NO":999,"REV_AT_EPOCH":20851,"BSTAR":-0.00040513806,"MEAN_MOTION_DOT":-1.47e-6,"MEAN_MOTION_DDOT":0},{"OBJECT_NAME":"ONEWEB-0333","OBJECT_ID":"2021-083P","EPOCH":"2026-01-04T23:13:34.632480","MEAN_MOTION":13.13468837,"ECCENTRICITY":0.0001778,"INCLINATION":87.8973,"RA_OF_ASC_NODE":352.6877,"ARG_OF_PERICENTER":84.4176,"MEAN_ANOMALY":275.7155,"EPHEMERIS_TYPE":0,"CLASSIFICATION_TYPE":"U","NORAD_CAT_ID":49199,"ELEMENT_SET_NO":999,"REV_AT_EPOCH":20948,"BSTAR":0.00017912,"MEAN_MOTION_DOT":7.8e-7,"MEAN_MOTION_DDOT":0},{"OBJECT_NAME":"ONEWEB-0334","OBJECT_ID":"2021-083Q","EPOCH":"2026-01-05T06:22:13.500192","MEAN_MOTION":13.20770168,"ECCENTRICITY":0.0001799,"INCLINATION":87.9217,"RA_OF_ASC_NODE":306.9563,"ARG_OF_PERICENTER":46.4219,"MEAN_ANOMALY":313.7064,"EPHEMERIS_TYPE":0,"CLASSIFICATION_TYPE":"U","NORAD_CAT_ID":49200,"ELEMENT_SET_NO":999,"REV_AT_EPOCH":21528,"BSTAR":0.00016196546,"MEAN_MOTION_DOT":7.9e-7,"MEAN_MOTION_DDOT":0}]
